NORAD_CAT_ID,OBJECT_NAME,OBJECT_TYPE,EPOCH,MEAN_MOTION,ECCENTRICITY,INCLINATION,RA_OF_ASC_NODE,ARG_OF_PERICENTER,MEAN_ANOMALY,BSTAR,MEAN_MOTION_DOT,MEAN_MOTION_DDOT,TLE_LINE0,TLE_LINE1,TLE_LINE2,SEMIMAJOR_AXIS,PERIOD,APOGEE,PERIGEE,DECAYED
56462.0,STARLINK-6045,PAYLOAD,2024-07-14 16:42:19,14.98330349,0.000343,69.9993,184.6363,268.5615,91.5152,-6.2797e-06,-1.68e-06,0.0,0 STARLINK-6045,1 56462U 23064Q   24196.69605480 -.00000168  00000-0 -62797-5 0  9991,2 56462  69.9993 184.6363 0003430 268.5615  91.5152 14.98330349 65912,6950.192,96.107,574.441,569.673,0.0
56462.0,STARLINK-6045,PAYLOAD,2024-07-15 08:43:39,14.98332352,0.0003434,69.9994,182.9532,268.4465,91.63,4.5315e-05,4.48e-06,0.0,0 STARLINK-6045,1 56462U 23064Q   24197.36365185  .00000448  00000-0  45315-4 0  9996,2 56462  69.9994 182.9532 0003434 268.4465  91.6300 14.98332352 66012,6950.186,96.107,574.437,569.664,0.0
56462.0,STARLINK-6045,PAYLOAD,2024-07-15 16:44:20,14.98329742,0.0003444,69.9993,182.1111,268.6975,91.379,1.4312e-05,7.8e-07,0.0,0 STARLINK-6045,1 56462U 23064Q   24197.69745397  .00000078  00000-0  14312-4 0  9991,2 56462  69.9993 182.1111 0003444 268.6975  91.3790 14.98329742 66429,6950.194,96.107,574.452,569.665,0.0
56462.0,STARLINK-6045,PAYLOAD,2024-07-16 08:45:40,14.98331826,0.0003435,69.9993,180.4282,268.7764,91.3002,4.9865e-05,5.02e-06,0.0,0 STARLINK-6045,1 56462U 23064Q   24198.36505175  .00000502  00000-0  49865-4 0  9997,2 56462  69.9993 180.4282 0003435 268.7764  91.3002 14.98331826 66169,6950.187,96.107,574.44,569.665,0.0
56462.0,STARLINK-6045,PAYLOAD,2024-07-17 05:35:25,14.98333048,0.0003387,69.9994,178.2402,268.9014,91.1757,4.2641e-06,-4.2e-07,0.0,0 STARLINK-6045,1 56462U 23064Q   24199.23293187 -.00000042  00000-0  42641-5 0  9997,2 56462  69.9994 178.2402 0003387 268.9014  91.1757 14.98333048 66652,6950.183,96.107,574.402,569.694,0.0
56462.0,STARLINK-6045,PAYLOAD,2024-07-17 08:47:41,14.98335545,0.0003354,69.9995,177.9033,268.8036,91.2739,3.3347e-05,3.05e-06,0.0,0 STARLINK-6045,1 56462U 23064Q   24199.36644916  .00000305  00000-0  33347-4 0  9994,2 56462  69.9995 177.9033 0003354 268.8036  91.2739 14.98335545 66314,6950.176,96.107,574.372,569.71,0.0
56462.0,STARLINK-6045,PAYLOAD,2024-07-18 05:37:26,14.9833083,0.0003072,70.0002,175.7164,266.4484,93.6324,3.1326e-05,2.81e-06,0.0,0 STARLINK-6045,1 56462U 23064Q   24200.23433187  .00000281  00000-0  31326-4 0  9997,2 56462  70.0002 175.7164 0003072 266.4484  93.6324 14.98330830 66807,6950.19,96.107,574.19,569.92,0.0
56462.0,STARLINK-6045,PAYLOAD,2024-07-18 08:49:42,14.98332435,0.0003078,70.0001,175.3796,266.8073,93.2734,4.6586e-05,4.63e-06,0.0,0 STARLINK-6045,1 56462U 23064Q   24200.36785025  .00000463  00000-0  46586-4 0  9998,2 56462  70.0001 175.3796 0003078 266.8073  93.2734 14.98332435 66463,6950.185,96.107,574.19,569.911,0.0
56462.0,STARLINK-6045,PAYLOAD,2024-07-18 15:14:14,14.98328742,0.0003086,70.0002,174.7061,267.9752,92.1053,5.1821e-06,-3.1e-07,0.0,0 STARLINK-6045,1 56462U 23064Q   24200.63489347 -.00000031  00000-0  51821-5 0  9997,2 56462  70.0002 174.7061 0003086 267.9752  92.1053 14.98328742 66500,6950.197,96.107,574.207,569.917,0.0
56462.0,STARLINK-6045,PAYLOAD,2024-07-19 07:15:35,14.98330227,0.000302,70.0004,173.0232,267.2537,92.8277,1.1901e-06,-7.9e-07,0.0,0 STARLINK-6045,1 56462U 23064Q   24201.30249278 -.00000079  00000-0  11901-5 0  9996,2 56462  70.0004 173.0232 0003020 267.2537  92.8277 14.98330227 66962,6950.192,96.107,574.156,569.958,0.0
56462.0,STARLINK-6045,PAYLOAD,2024-07-19 15:16:15,14.98330527,0.0003019,70.0004,172.1815,267.9549,92.1264,-1.225e-06,-1.08e-06,0.0,0 STARLINK-6045,1 56462U 23064Q   24201.63629233 -.00000108  00000-0 -12250-5 0  9997,2 56462  70.0004 172.1815 0003019 267.9549  92.1264 14.98330527 66655,6950.191,96.107,574.155,569.958,0.0
56462.0,STARLINK-6045,PAYLOAD,2024-07-20 08:53:44,14.98333611,0.0002968,70.0004,170.3301,266.0218,94.0602,3.0475e-05,2.71e-06,0.0,0 STARLINK-6045,1 56462U 23064Q   24202.37064902  .00000271  00000-0  30475-4 0  9992,2 56462  70.0004 170.3301 0002968 266.0218  94.0602 14.98333611 67127,6950.182,96.107,574.11,569.984,0.0
56462.0,STARLINK-6045,PAYLOAD,2024-07-20 15:18:16,14.98329598,0.0002958,70.0006,169.6567,266.4968,93.5853,-4.8927e-06,-1.51e-06,0.0,0 STARLINK-6045,1 56462U 23064Q   24202.63769225 -.00000151  00000-0 -48927-5 0  9992,2 56462  70.0006 169.6567 0002958 266.4968  93.5853 14.98329598 66804,6950.194,96.107,574.115,570.003,0.0
56462.0,STARLINK-6045,PAYLOAD,2024-07-21 04:07:21,14.98309264,0.0002907,70.0004,168.3103,264.2916,95.7911,0.00026466,3.065e-05,0.0,0 STARLINK-6045,1 56462U 23064Q   24203.17177837  .00003065  00000-0  26466-3 0  9991,2 56462  70.0004 168.3103 0002907 264.2916  95.7911 14.98309264 67243,6950.257,96.108,574.142,570.102,0.0
56462.0,STARLINK-6045,PAYLOAD,2024-07-21 07:19:37,14.98328002,0.0002899,70.0005,167.9738,266.7171,93.3656,1.9637e-05,1.41e-06,0.0,0 STARLINK-6045,1 56462U 23064Q   24203.30529390  .00000141  00000-0  19637-4 0  9996,2 56462  70.0005 167.9738 0002899 266.7171  93.3656 14.98328002 67266,6950.199,96.107,574.079,570.049,0.0
56462.0,STARLINK-6045,PAYLOAD,2024-07-21 21:44:49,14.98325777,0.0002988,70.0001,166.4585,267.0201,93.0616,7.2649e-05,7.74e-06,0.0,0 STARLINK-6045,1 56462U 23064Q   24203.90613394  .00000774  00000-0  72649-4 0  9994,2 56462  70.0001 166.4585 0002988 267.0201  93.0616 14.98325777 66991,6950.206,96.107,574.148,569.994,0.0
56462.0,STARLINK-6045,PAYLOAD,2024-07-22 07:21:38,14.98329871,0.0003085,69.9997,165.4483,267.3913,92.6893,1.6748e-05,1.07e-06,0.0,0 STARLINK-6045,1 56462U 23064Q   24204.30669298  .00000107  00000-0  16748-4 0  9991,2 56462  69.9997 165.4483 0003085 267.3913  92.6893 14.98329871 67419,6950.193,96.107,574.202,569.914,0.0
56462.0,STARLINK-6045,PAYLOAD,2024-07-22 21:46:53,14.98297577,0.0003192,69.9998,163.9338,271.0361,89.0432,-0.00023197,-2.857e-05,0.0,0 STARLINK-6045,1 56462U 23064Q   24204.90756730 -.00002857  00000-0 -23197-3 0  9996,2 56462  69.9998 163.9338 0003192 271.0361  89.0432 14.98297577 67146,6950.293,96.109,574.377,569.94,0.0
56462.0,STARLINK-6045,PAYLOAD,2024-07-23 04:11:24,14.9832576,0.0002889,69.9999,163.2604,264.9523,95.1307,2.9412e-05,2.58e-06,0.0,0 STARLINK-6045,1 56462U 23064Q   24205.17458603  .00000258  00000-0  29412-4 0  9992,2 56462  69.9999 163.2604 0002889 264.9523  95.1307 14.98325760 67548,6950.206,96.107,574.079,570.063,0.0
56462.0,STARLINK-6045,PAYLOAD,2024-07-23 07:23:40,14.98329728,0.0002978,69.9997,162.9241,264.4404,95.6415,7.1826e-05,7.64e-06,0.0,0 STARLINK-6045,1 56462U 23064Q   24205.30810385  .00000764  00000-0  71826-4 0  9994,2 56462  69.9997 162.9241 0002978 264.4404  95.6415 14.98329728 67207,6950.194,96.107,574.128,569.989,0.0
56462.0,STARLINK-6045,PAYLOAD,2024-07-23 20:12:44,14.98335355,0.0003197,69.9993,161.5766,275.8265,84.253,9.6875e-05,1.063e-05,0.0,0 STARLINK-6045,1 56462U 23064Q   24205.84217814  .00001063  00000-0  96875-4 0  9995,2 56462  69.9993 161.5766 0003197 275.8265  84.2530 14.98335355 67648,6950.176,96.107,574.263,569.819,0.0
56462.0,STARLINK-6045,PAYLOAD,2024-07-24 05:49:31,14.9834306,0.0002889,69.9999,160.5665,275.5609,84.522,0.00019031,2.179e-05,0.0,0 STARLINK-6045,1 56462U 23064Q   24206.24272939  .00002179  00000-0  19031-3 0  9996,2 56462  69.9999 160.5665 0002889 275.5609  84.5220 14.98343060 67705,6950.153,96.106,574.025,570.01,0.0
56462.0,STARLINK-6045,PAYLOAD,2024-07-24 07:25:39,14.98344641,0.0002995,69.9997,160.3991,270.7684,89.3132,0.00019508,2.236e-05,0.0,0 STARLINK-6045,1 56462U 23064Q   24206.30948712  .00002236  00000-0  19508-3 0  9995,2 56462  69.9997 160.3991 0002995 270.7684  89.3132 14.98344641 67353,6950.148,96.106,574.094,569.931,0.0
56462.0,STARLINK-6045,PAYLOAD,2024-07-25 04:15:25,14.98290752,0.0002727,70.0003,158.2117,254.4719,105.6139,0.00092367,0.00010934,0.0,0 STARLINK-6045,1 56462U 23064Q   24207.17738143  .00010934  00000-0  92367-3 0  9994,2 56462  70.0003 158.2117 0002727 254.4719 105.6139 14.98290752 67847,6950.314,96.11,574.075,570.284,0.0
56462.0,STARLINK-6045,PAYLOAD,2024-07-25 05:51:33,14.98327554,0.0002574,70.0007,158.0425,266.8012,93.2853,0.00032052,3.733e-05,0.0,0 STARLINK-6045,1 56462U 23064Q   24207.24413500  .00003733  00000-0  32052-3 0  9993,2 56462  70.0007 158.0425 0002574 266.8012  93.2853 14.98327554 67491,6950.2,96.107,573.854,570.276,0.0
56462.0,STARLINK-6045,PAYLOAD,2024-07-25 07:27:41,14.9831336,0.0002619,70.0005,157.8749,255.5635,104.5233,0.00057981,6.829e-05,0.0,0 STARLINK-6045,1 56462U 23064Q   24207.31089722  .00006829  00000-0  57981-3 0  9993,2 56462  70.0005 157.8749 0002619 255.5635 104.5233 14.98313360 67860,6950.244,96.108,573.93,570.289,0.0
56462.0,STARLINK-6045,PAYLOAD,2024-07-25 21:52:53,14.98337345,0.000242,70.0015,156.361,255.7659,104.3231,-0.00010594,-1.357e-05,0.0,0 STARLINK-6045,1 56462U 23064Q   24207.91173463 -.00001357  00000-0 -10594-3 0  9997,2 56462  70.0015 156.3610 0002420 255.7659 104.3231 14.98337345 67595,6950.17,96.107,573.717,570.353,0.0
56462.0,STARLINK-6045,PAYLOAD,2024-07-26 05:53:34,14.9833404,0.0002477,70.0009,155.5181,260.2874,99.8005,-0.00015971,-1.998e-05,0.0,0 STARLINK-6045,1 56462U 23064Q   24208.24553702 -.00001998  00000-0 -15971-3 0  9997,2 56462  70.0009 155.5181 0002477 260.2874  99.8005 14.98334040 67646,6950.18,96.107,573.767,570.324,0.0
56462.0,STARLINK-6045,PAYLOAD,2024-07-26 13:54:14,14.98341655,0.0002824,70.0002,154.6773,273.2686,86.815,-0.00012678,-1.606e-05,0.0,0 STARLINK-6045,1 56462U 23064Q   24208.57932907 -.00001606  00000-0 -12678-3 0  9998,2 56462  70.0002 154.6773 0002824 273.2686  86.8150 14.98341655 68050,6950.157,96.106,573.985,570.059,0.0
56462.0,STARLINK-6045,PAYLOAD,2024-07-27 05:55:34,14.98342013,0.0002802,70.0008,152.9951,267.0992,92.9847,-6.262e-06,-1.68e-06,0.0,0 STARLINK-6045,1 56462U 23064Q   24209.24692172 -.00000168  00000-0 -62620-5 0  9996,2 56462  70.0008 152.9951 0002802 267.0992  92.9847 14.98342013 67792,6950.156,96.106,573.968,570.073,0.0
